[{"OBJECT_NAME":"JINJUSAT-1B","OBJECT_ID":"2025-052A","EPOCH":"2026-03-09T15:55:38.242848","MEAN_MOTION":15.30194857,"ECCENTRICITY":0.00055504,"INCLINATION":97.4113,"RA_OF_ASC_NODE":325.4613,"ARG_OF_PERICENTER":82.193,"MEAN_ANOMALY":277.9941,"EPHEMERIS_TYPE":0,"CLASSIFICATION_TYPE":"U","NORAD_CAT_ID":63210,"ELEMENT_SET_NO":999,"REV_AT_EPOCH":5486,"BSTAR":0.00068430401,"MEAN_MOTION_DOT":0.00019955,"MEAN_MOTION_DDOT":0},{"OBJECT_NAME":"STARLINK-34159","OBJECT_ID":"2025-099A","EPOCH":"2026-03-09T07:14:34.490976","MEAN_MOTION":15.27585855,"ECCENTRICITY":7.115e-5,"INCLINATION":42.9985,"RA_OF_ASC_NODE":178.7036,"ARG_OF_PERICENTER":166.2044,"MEAN_ANOMALY":193.8827,"EPHEMERIS_TYPE":0,"CLASSIFICATION_TYPE":"U","NORAD_CAT_ID":63952,"ELEMENT_SET_NO":999,"REV_AT_EPOCH":4726,"BSTAR":0.0012653688,"MEAN_MOTION_DOT":0.00034728,"MEAN_MOTION_DDOT":0}]
