JINJUSAT-1B             
1 63210U 25052A   26068.66363707  .00019955  00000+0  68430-3 0  9998
2 63210  97.4113 325.4613 0005550  82.1930 277.9941 15.30194857 54866
STARLINK-34159          
1 63952U 25099A   26068.30178809  .00034728  00000+0  12654-2 0  9991
2 63952  42.9985 178.7036 0000711 166.2044 193.8827 15.27585855 47266
